CCSDS_OMM_VERS = 2.0
CREATION_DATE  = 
ORIGINATOR     = 

OBJECT_NAME    = SL-16 R/B
OBJECT_ID      = 1998-043G
CENTER_NAME    = EARTH
REF_FRAME      = TEME
TIME_SYSTEM    = UTC
MEAN_ELEMENT_THEORY = SGP/SGP4

EPOCH          = 2025-12-08T07:23:17.954880
MEAN_MOTION    = 14.26024014
ECCENTRICITY   = .00088447
INCLINATION    = 98.8118
RA_OF_ASC_NODE = 290.1013
ARG_OF_PERICENTER = 281.1328
MEAN_ANOMALY   = 78.8857

EPHEMERIS_TYPE = 0
CLASSIFICATION_TYPE = U
NORAD_CAT_ID   = 25400
ELEMENT_SET_NO = 999
REV_AT_EPOCH   = 42596
BSTAR          = .95200604E-4
MEAN_MOTION_DOT = .182E-5
MEAN_MOTION_DDOT = 0

CCSDS_OMM_VERS = 2.0
CREATION_DATE  = 
ORIGINATOR     = 

OBJECT_NAME    = SL-16 R/B
OBJECT_ID      = 1998-045B
CENTER_NAME    = EARTH
REF_FRAME      = TEME
TIME_SYSTEM    = UTC
MEAN_ELEMENT_THEORY = SGP/SGP4

EPOCH          = 2025-12-08T07:33:16.520256
MEAN_MOTION    = 14.16176141
ECCENTRICITY   = .0007157
INCLINATION    = 71.0123
RA_OF_ASC_NODE = 13.7328
ARG_OF_PERICENTER = 184.6777
MEAN_ANOMALY   = 175.4281

EPHEMERIS_TYPE = 0
CLASSIFICATION_TYPE = U
NORAD_CAT_ID   = 25407
ELEMENT_SET_NO = 999
REV_AT_EPOCH   = 41416
BSTAR          = -.13597097E-4
MEAN_MOTION_DOT = -.75E-6
MEAN_MOTION_DDOT = 0

CCSDS_OMM_VERS = 2.0
CREATION_DATE  = 
ORIGINATOR     = 

OBJECT_NAME    = ISS (ZARYA)
OBJECT_ID      = 1998-067A
CENTER_NAME    = EARTH
REF_FRAME      = TEME
TIME_SYSTEM    = UTC
MEAN_ELEMENT_THEORY = SGP/SGP4

EPOCH          = 2025-12-08T05:16:39.559584
MEAN_MOTION    = 15.49412336
ECCENTRICITY   = .00034318
INCLINATION    = 51.6305
RA_OF_ASC_NODE = 164.8582
ARG_OF_PERICENTER = 219.3069
MEAN_ANOMALY   = 140.7671

EPHEMERIS_TYPE = 0
CLASSIFICATION_TYPE = U
NORAD_CAT_ID   = 25544
ELEMENT_SET_NO = 999
REV_AT_EPOCH   = 54215
BSTAR          = .22082399E-3
MEAN_MOTION_DOT = .11911E-3
MEAN_MOTION_DDOT = 0

CCSDS_OMM_VERS = 2.0
CREATION_DATE  = 
ORIGINATOR     = 

OBJECT_NAME    = CZ-4B R/B
OBJECT_ID      = 1999-025C
CENTER_NAME    = EARTH
REF_FRAME      = TEME
TIME_SYSTEM    = UTC
MEAN_ELEMENT_THEORY = SGP/SGP4

EPOCH          = 2025-12-08T02:11:48.223968
MEAN_MOTION    = 14.18241786
ECCENTRICITY   = .00361553
INCLINATION    = 98.6774
RA_OF_ASC_NODE = 23.4753
ARG_OF_PERICENTER = 247.7205
MEAN_ANOMALY   = 166.3155

EPHEMERIS_TYPE = 0
CLASSIFICATION_TYPE = U
NORAD_CAT_ID   = 25732
ELEMENT_SET_NO = 999
REV_AT_EPOCH   = 37518
BSTAR          = .86987787E-4
MEAN_MOTION_DOT = .137E-5
MEAN_MOTION_DDOT = 0

CCSDS_OMM_VERS = 2.0
CREATION_DATE  = 
ORIGINATOR     = 

OBJECT_NAME    = OKEAN-O
OBJECT_ID      = 1999-039A
CENTER_NAME    = EARTH
REF_FRAME      = TEME
TIME_SYSTEM    = UTC
MEAN_ELEMENT_THEORY = SGP/SGP4

EPOCH          = 2025-12-08T03:00:05.649696
MEAN_MOTION    = 14.80148623
ECCENTRICITY   = .0000795
INCLINATION    = 97.9608
RA_OF_ASC_NODE = 37.8665
ARG_OF_PERICENTER = 87.9234
MEAN_ANOMALY   = 272.2069

EPHEMERIS_TYPE = 0
CLASSIFICATION_TYPE = U
NORAD_CAT_ID   = 25860
ELEMENT_SET_NO = 999
REV_AT_EPOCH   = 42084
BSTAR          = .17629703E-3
MEAN_MOTION_DOT = .1286E-4
MEAN_MOTION_DDOT = 0

CCSDS_OMM_VERS = 2.0
CREATION_DATE  = 
ORIGINATOR     = 

OBJECT_NAME    = SL-16 R/B
OBJECT_ID      = 1999-039B
CENTER_NAME    = EARTH
REF_FRAME      = TEME
TIME_SYSTEM    = UTC
MEAN_ELEMENT_THEORY = SGP/SGP4

EPOCH          = 2025-12-08T02:59:23.854560
MEAN_MOTION    = 14.81575948
ECCENTRICITY   = .00145649
INCLINATION    = 98.0131
RA_OF_ASC_NODE = 36.2753
ARG_OF_PERICENTER = 189.7406
MEAN_ANOMALY   = 170.3526

EPHEMERIS_TYPE = 0
CLASSIFICATION_TYPE = U
NORAD_CAT_ID   = 25861
ELEMENT_SET_NO = 999
REV_AT_EPOCH   = 42330
BSTAR          = .14389261E-3
MEAN_MOTION_DOT = .1078E-4
MEAN_MOTION_DDOT = 0

CCSDS_OMM_VERS = 2.0
CREATION_DATE  = 
ORIGINATOR     = 

OBJECT_NAME    = DELTA 2 R/B
OBJECT_ID      = 1999-041E
CENTER_NAME    = EARTH
REF_FRAME      = TEME
TIME_SYSTEM    = UTC
MEAN_ELEMENT_THEORY = SGP/SGP4

EPOCH          = 2025-12-08T04:21:40.515552
MEAN_MOTION    = 14.11383201
ECCENTRICITY   = .05047599
INCLINATION    = 51.7620
RA_OF_ASC_NODE = 306.6410
ARG_OF_PERICENTER = 78.3332
MEAN_ANOMALY   = 287.3776

EPHEMERIS_TYPE = 0
CLASSIFICATION_TYPE = U
NORAD_CAT_ID   = 25876
ELEMENT_SET_NO = 999
REV_AT_EPOCH   = 35010
BSTAR          = .26420196E-3
MEAN_MOTION_DOT = .1395E-4
MEAN_MOTION_DDOT = 0

CCSDS_OMM_VERS = 2.0
CREATION_DATE  = 
ORIGINATOR     = 

OBJECT_NAME    = HELIOS 1B
OBJECT_ID      = 1999-064A
CENTER_NAME    = EARTH
REF_FRAME      = TEME
TIME_SYSTEM    = UTC
MEAN_ELEMENT_THEORY = SGP/SGP4

EPOCH          = 2025-12-08T07:06:00.414432
MEAN_MOTION    = 14.87253807
ECCENTRICITY   = .00019252
INCLINATION    = 98.1752
RA_OF_ASC_NODE = 236.8297
ARG_OF_PERICENTER = 48.3847
MEAN_ANOMALY   = 311.7532

EPHEMERIS_TYPE = 0
CLASSIFICATION_TYPE = U
NORAD_CAT_ID   = 25977
ELEMENT_SET_NO = 999
REV_AT_EPOCH   = 67167
BSTAR          = .33608415E-3
MEAN_MOTION_DOT = .2971E-4
MEAN_MOTION_DDOT = 0

CCSDS_OMM_VERS = 2.0
CREATION_DATE  = 
ORIGINATOR     = 

OBJECT_NAME    = TERRA
OBJECT_ID      = 1999-068A
CENTER_NAME    = EARTH
REF_FRAME      = TEME
TIME_SYSTEM    = UTC
MEAN_ELEMENT_THEORY = SGP/SGP4

EPOCH          = 2025-12-08T06:47:17.564352
MEAN_MOTION    = 14.60945303
ECCENTRICITY   = .00035232
INCLINATION    = 97.9754
RA_OF_ASC_NODE = 34.1308
ARG_OF_PERICENTER = 106.7853
MEAN_ANOMALY   = 317.8521

EPHEMERIS_TYPE = 0
CLASSIFICATION_TYPE = U
NORAD_CAT_ID   = 25994
ELEMENT_SET_NO = 999
REV_AT_EPOCH   = 38173
BSTAR          = .21367439E-3
MEAN_MOTION_DOT = .1002E-4
MEAN_MOTION_DDOT = 0

CCSDS_OMM_VERS = 2.0
CREATION_DATE  = 
ORIGINATOR     = 

OBJECT_NAME    = SL-16 R/B
OBJECT_ID      = 2000-006B
CENTER_NAME    = EARTH
REF_FRAME      = TEME
TIME_SYSTEM    = UTC
MEAN_ELEMENT_THEORY = SGP/SGP4

EPOCH          = 2025-12-08T07:21:20.244384
MEAN_MOTION    = 14.15810450
ECCENTRICITY   = .00182844
INCLINATION    = 71.0032
RA_OF_ASC_NODE = 289.9785
ARG_OF_PERICENTER = 314.7711
MEAN_ANOMALY   = 45.1923

EPHEMERIS_TYPE = 0
CLASSIFICATION_TYPE = U
NORAD_CAT_ID   = 26070
ELEMENT_SET_NO = 999
REV_AT_EPOCH   = 33562
BSTAR          = .82785938E-4
MEAN_MOTION_DOT = .115E-5
MEAN_MOTION_DDOT = 0

CCSDS_OMM_VERS = 2.0
CREATION_DATE  = 
ORIGINATOR     = 

OBJECT_NAME    = TITAN 4B R/B
OBJECT_ID      = 2000-047B
CENTER_NAME    = EARTH
REF_FRAME      = TEME
TIME_SYSTEM    = UTC
MEAN_ELEMENT_THEORY = SGP/SGP4

EPOCH          = 2025-12-08T07:13:57.058176
MEAN_MOTION    = 15.08729918
ECCENTRICITY   = .00393028
INCLINATION    = 67.9905
RA_OF_ASC_NODE = 297.3195
ARG_OF_PERICENTER = 150.0368
MEAN_ANOMALY   = 210.3042

EPHEMERIS_TYPE = 0
CLASSIFICATION_TYPE = U
NORAD_CAT_ID   = 26474
ELEMENT_SET_NO = 999
REV_AT_EPOCH   = 37912
BSTAR          = .33629413E-3
MEAN_MOTION_DOT = .5253E-4
MEAN_MOTION_DDOT = 0

CCSDS_OMM_VERS = 2.0
CREATION_DATE  = 
ORIGINATOR     = 

OBJECT_NAME    = ENVISAT
OBJECT_ID      = 2002-009A
CENTER_NAME    = EARTH
REF_FRAME      = TEME
TIME_SYSTEM    = UTC
MEAN_ELEMENT_THEORY = SGP/SGP4

EPOCH          = 2025-12-08T07:51:29.366208
MEAN_MOTION    = 14.38996866
ECCENTRICITY   = .00011495
INCLINATION    = 98.3594
RA_OF_ASC_NODE = 293.1800
ARG_OF_PERICENTER = 81.6621
MEAN_ANOMALY   = 36.9550

EPHEMERIS_TYPE = 0
CLASSIFICATION_TYPE = U
NORAD_CAT_ID   = 27386
ELEMENT_SET_NO = 999
REV_AT_EPOCH   = 24603
BSTAR          = .1110112E-3
MEAN_MOTION_DOT = .3E-5
MEAN_MOTION_DDOT = 0

