SL-16 R/B               
1 25400U 98043G   25342.30784670  .00000182  00000+0  95201-4 0  9997
2 25400  98.8118 290.1013 0008844 281.1328  78.8857 14.26024014425966
SL-16 R/B               
1 25407U 98045B   25342.31477454 -.00000075  00000+0 -13597-4 0  9997
2 25407  71.0123  13.7328 0007157 184.6777 175.4281 14.16176141414164
ISS (ZARYA)             
1 25544U 98067A   25342.21990231  .00011911  00000+0  22082-3 0  9992
2 25544  51.6305 164.8582 0003431 219.3069 140.7671 15.49412336542158
CZ-4B R/B               
1 25732U 99025C   25342.09153037  .00000137  00000+0  86988-4 0  9991
2 25732  98.6774  23.4753 0036155 247.7205 166.3155 14.18241786375186
OKEAN-O                 
1 25860U 99039A   25342.12506539  .00001286  00000+0  17630-3 0  9994
2 25860  97.9608  37.8665 0000795  87.9234 272.2069 14.80148623420844
SL-16 R/B               
1 25861U 99039B   25342.12458165  .00001078  00000+0  14389-3 0  9993
2 25861  98.0131  36.2753 0014564 189.7406 170.3526 14.81575948423305
DELTA 2 R/B             
1 25876U 99041E   25342.18171893  .00001395  00000+0  26420-3 0  9999
2 25876  51.7620 306.6410 0504759  78.3332 287.3776 14.11383201350100
HELIOS 1B               
1 25977U 99064A   25342.29583813  .00002971  00000+0  33608-3 0  9994
2 25977  98.1752 236.8297 0001925  48.3847 311.7532 14.87253807671676
TERRA                   
1 25994U 99068A   25342.28284218  .00001002  00000+0  21367-3 0  9996
2 25994  97.9754  34.1308 0003523 106.7853 317.8521 14.60945303381738
SL-16 R/B               
1 26070U 00006B   25342.30648431  .00000115  00000+0  82786-4 0  9997
2 26070  71.0032 289.9785 0018284 314.7711  45.1923 14.15810450335627
TITAN 4B R/B            
1 26474U 00047B   25342.30135484  .00005253  00000+0  33629-3 0  9998
2 26474  67.9905 297.3195 0039302 150.0368 210.3042 15.08729918379121
ENVISAT                 
1 27386U 02009A   25342.32742322  .00000300  00000+0  11101-3 0  9997
2 27386  98.3594 293.1800 0001149  81.6621  36.9550 14.38996866246031
